[{"OBJECT_NAME":"ONEWEB-0328","OBJECT_ID":"2021-083M","EPOCH":"2026-03-21T11:09:21.127104","MEAN_MOTION":13.13471565,"ECCENTRICITY":0.00017821,"INCLINATION":87.9032,"RA_OF_ASC_NODE":337.6609,"ARG_OF_PERICENTER":74.2931,"MEAN_ANOMALY":285.8395,"EPHEMERIS_TYPE":0,"CLASSIFICATION_TYPE":"U","NORAD_CAT_ID":49197,"ELEMENT_SET_NO":999,"REV_AT_EPOCH":21938,"BSTAR":0.00075573478,"MEAN_MOTION_DOT":2.89e-6,"MEAN_MOTION_DDOT":0},{"OBJECT_NAME":"ONEWEB-0331","OBJECT_ID":"2021-083N","EPOCH":"2026-03-21T06:46:34.972608","MEAN_MOTION":13.18688013,"ECCENTRICITY":0.0001546,"INCLINATION":87.9251,"RA_OF_ASC_NODE":352.9121,"ARG_OF_PERICENTER":69.9241,"MEAN_ANOMALY":290.2057,"EPHEMERIS_TYPE":0,"CLASSIFICATION_TYPE":"U","NORAD_CAT_ID":49198,"ELEMENT_SET_NO":999,"REV_AT_EPOCH":21842,"BSTAR":0.00013309792,"MEAN_MOTION_DOT":6.5e-7,"MEAN_MOTION_DDOT":0},{"OBJECT_NAME":"ONEWEB-0333","OBJECT_ID":"2021-083P","EPOCH":"2026-03-21T11:02:02.006880","MEAN_MOTION":13.13472882,"ECCENTRICITY":0.00016756,"INCLINATION":87.9013,"RA_OF_ASC_NODE":337.6984,"ARG_OF_PERICENTER":80.504,"MEAN_ANOMALY":279.6278,"EPHEMERIS_TYPE":0,"CLASSIFICATION_TYPE":"U","NORAD_CAT_ID":49199,"ELEMENT_SET_NO":999,"REV_AT_EPOCH":21939,"BSTAR":0.0010082074,"MEAN_MOTION_DOT":3.81e-6,"MEAN_MOTION_DDOT":0},{"OBJECT_NAME":"ONEWEB-0334","OBJECT_ID":"2021-083Q","EPOCH":"2026-03-21T13:37:28.536960","MEAN_MOTION":13.20771241,"ECCENTRICITY":0.00025027,"INCLINATION":87.9141,"RA_OF_ASC_NODE":291.9482,"ARG_OF_PERICENTER":102.9275,"MEAN_ANOMALY":257.2138,"EPHEMERIS_TYPE":0,"CLASSIFICATION_TYPE":"U","NORAD_CAT_ID":49200,"ELEMENT_SET_NO":999,"REV_AT_EPOCH":22522,"BSTAR":-0.00015752846,"MEAN_MOTION_DOT":-5.1e-7,"MEAN_MOTION_DDOT":0},{"OBJECT_NAME":"ONEWEB-0335","OBJECT_ID":"2021-083R","EPOCH":"2026-03-20T16:37:46.516800","MEAN_MOTION":13.13470936,"ECCENTRICITY":0.00016158,"INCLINATION":87.9022,"RA_OF_ASC_NODE":337.8451,"ARG_OF_PERICENTER":75.6767,"MEAN_ANOMALY":284.4541,"EPHEMERIS_TYPE":0,"CLASSIFICATION_TYPE":"U","NORAD_CAT_ID":49201,"ELEMENT_SET_NO":999,"REV_AT_EPOCH":21930,"BSTAR":0.0005811768,"MEAN_MOTION_DOT":2.25e-6,"MEAN_MOTION_DDOT":0},{"OBJECT_NAME":"ONEWEB-0336","OBJECT_ID":"2021-083S","EPOCH":"2026-03-21T06:33:53.237376","MEAN_MOTION":13.13470773,"ECCENTRICITY":0.00014855,"INCLINATION":87.9022,"RA_OF_ASC_NODE":337.726,"ARG_OF_PERICENTER":65.1976,"MEAN_ANOMALY":294.9308,"EPHEMERIS_TYPE":0,"CLASSIFICATION_TYPE":"U","NORAD_CAT_ID":49202,"ELEMENT_SET_NO":999,"REV_AT_EPOCH":21937,"BSTAR":-0.00089279848,"MEAN_MOTION_DOT":-3.13e-6,"MEAN_MOTION_DDOT":0},{"OBJECT_NAME":"ONEWEB-0337","OBJECT_ID":"2021-083T","EPOCH":"2026-03-21T04:58:38.422560","MEAN_MOTION":13.13470873,"ECCENTRICITY":0.00017513,"INCLINATION":87.9015,"RA_OF_ASC_NODE":337.7481,"ARG_OF_PERICENTER":72.4415,"MEAN_ANOMALY":287.6905,"EPHEMERIS_TYPE":0,"CLASSIFICATION_TYPE":"U","NORAD_CAT_ID":49203,"ELEMENT_SET_NO":999,"REV_AT_EPOCH":21936,"BSTAR":-0.00059799652,"MEAN_MOTION_DOT":-2.06e-6,"MEAN_MOTION_DDOT":0},{"OBJECT_NAME":"ONEWEB-0338","OBJECT_ID":"2021-083U","EPOCH":"2026-03-21T07:33:50.240448","MEAN_MOTION":13.20771287,"ECCENTRICITY":0.00019687,"INCLINATION":87.9145,"RA_OF_ASC_NODE":292.0035,"ARG_OF_PERICENTER":94.5162,"MEAN_ANOMALY":265.6197,"EPHEMERIS_TYPE":0,"CLASSIFICATION_TYPE":"U","NORAD_CAT_ID":49204,"ELEMENT_SET_NO":999,"REV_AT_EPOCH":22521,"BSTAR":0.00016035303,"MEAN_MOTION_DOT":7.8e-7,"MEAN_MOTION_DDOT":0},{"OBJECT_NAME":"ONEWEB-0339","OBJECT_ID":"2021-083V","EPOCH":"2026-03-21T05:11:00.551904","MEAN_MOTION":13.13472148,"ECCENTRICITY":0.00019741,"INCLINATION":87.9026,"RA_OF_ASC_NODE":337.7351,"ARG_OF_PERICENTER":83.026,"MEAN_ANOMALY":277.1094,"EPHEMERIS_TYPE":0,"CLASSIFICATION_TYPE":"U","NORAD_CAT_ID":49205,"ELEMENT_SET_NO":999,"REV_AT_EPOCH":21934,"BSTAR":-4.0317904e-5,"MEAN_MOTION_DOT":-2.0e-8,"MEAN_MOTION_DDOT":0},{"OBJECT_NAME":"ONEWEB-0340","OBJECT_ID":"2021-083W","EPOCH":"2026-03-21T11:55:22.090080","MEAN_MOTION":13.18687386,"ECCENTRICITY":0.0001712,"INCLINATION":87.9251,"RA_OF_ASC_NODE":352.875,"ARG_OF_PERICENTER":77.5718,"MEAN_ANOMALY":282.5606,"EPHEMERIS_TYPE":0,"CLASSIFICATION_TYPE":"U","NORAD_CAT_ID":49206,"ELEMENT_SET_NO":999,"REV_AT_EPOCH":21841,"BSTAR":0.0001453443,"MEAN_MOTION_DOT":7.0e-7,"MEAN_MOTION_DDOT":0},{"OBJECT_NAME":"ONEWEB-0341","OBJECT_ID":"2021-083X","EPOCH":"2026-03-21T12:04:52.042368","MEAN_MOTION":13.18687625,"ECCENTRICITY":0.00020672,"INCLINATION":87.9243,"RA_OF_ASC_NODE":352.8829,"ARG_OF_PERICENTER":66.0786,"MEAN_ANOMALY":294.0563,"EPHEMERIS_TYPE":0,"CLASSIFICATION_TYPE":"U","NORAD_CAT_ID":49207,"ELEMENT_SET_NO":999,"REV_AT_EPOCH":21843,"BSTAR":0.00021147139,"MEAN_MOTION_DOT":9.6e-7,"MEAN_MOTION_DDOT":0},{"OBJECT_NAME":"ONEWEB-0342","OBJECT_ID":"2021-083Y","EPOCH":"2026-03-21T13:10:11.911872","MEAN_MOTION":13.20770411,"ECCENTRICITY":0.00018266,"INCLINATION":87.9153,"RA_OF_ASC_NODE":291.9364,"ARG_OF_PERICENTER":89.1414,"MEAN_ANOMALY":270.9929,"EPHEMERIS_TYPE":0,"CLASSIFICATION_TYPE":"U","NORAD_CAT_ID":49208,"ELEMENT_SET_NO":999,"REV_AT_EPOCH":22521,"BSTAR":2.0243594e-5,"MEAN_MOTION_DOT":2.1e-7,"MEAN_MOTION_DDOT":0},{"OBJECT_NAME":"ONEWEB-0343","OBJECT_ID":"2021-083Z","EPOCH":"2026-03-21T06:48:57.178368","MEAN_MOTION":13.18687569,"ECCENTRICITY":0.00022978,"INCLINATION":87.925,"RA_OF_ASC_NODE":352.9211,"ARG_OF_PERICENTER":73.856,"MEAN_ANOMALY":286.2825,"EPHEMERIS_TYPE":0,"CLASSIFICATION_TYPE":"U","NORAD_CAT_ID":49209,"ELEMENT_SET_NO":999,"REV_AT_EPOCH":21845,"BSTAR":0.00012828696,"MEAN_MOTION_DOT":6.3e-7,"MEAN_MOTION_DDOT":0},{"OBJECT_NAME":"ONEWEB-0344","OBJECT_ID":"2021-083AA","EPOCH":"2026-03-21T10:32:46.431456","MEAN_MOTION":13.13471893,"ECCENTRICITY":0.00019111,"INCLINATION":87.9015,"RA_OF_ASC_NODE":337.7131,"ARG_OF_PERICENTER":68.6398,"MEAN_ANOMALY":291.4935,"EPHEMERIS_TYPE":0,"CLASSIFICATION_TYPE":"U","NORAD_CAT_ID":49210,"ELEMENT_SET_NO":999,"REV_AT_EPOCH":21937,"BSTAR":-0.0007372983,"MEAN_MOTION_DOT":-2.57e-6,"MEAN_MOTION_DDOT":0},{"OBJECT_NAME":"ONEWEB-0345","OBJECT_ID":"2021-083AB","EPOCH":"2026-03-21T10:20:35.879712","MEAN_MOTION":13.13470598,"ECCENTRICITY":0.00018877,"INCLINATION":87.9022,"RA_OF_ASC_NODE":337.6837,"ARG_OF_PERICENTER":69.8033,"MEAN_ANOMALY":290.3299,"EPHEMERIS_TYPE":0,"CLASSIFICATION_TYPE":"U","NORAD_CAT_ID":49211,"ELEMENT_SET_NO":999,"REV_AT_EPOCH":21938,"BSTAR":-0.00068436431,"MEAN_MOTION_DOT":-2.37e-6,"MEAN_MOTION_DDOT":0},{"OBJECT_NAME":"ONEWEB-0346","OBJECT_ID":"2021-083AC","EPOCH":"2026-03-21T12:11:58.503264","MEAN_MOTION":13.18686214,"ECCENTRICITY":0.00011867,"INCLINATION":87.924,"RA_OF_ASC_NODE":352.8836,"ARG_OF_PERICENTER":65.9538,"MEAN_ANOMALY":294.1718,"EPHEMERIS_TYPE":0,"CLASSIFICATION_TYPE":"U","NORAD_CAT_ID":49212,"ELEMENT_SET_NO":999,"REV_AT_EPOCH":21842,"BSTAR":0.00010493309,"MEAN_MOTION_DOT":5.4e-7,"MEAN_MOTION_DDOT":0}]
