ONEWEB-0328             
1 49197U 21083M   26080.46482786  .00000289  00000+0  75573-3 0  9993
2 49197  87.9032 337.6609 0001782  74.2931 285.8395 13.13471565219388
ONEWEB-0331             
1 49198U 21083N   26080.28234922  .00000065  00000+0  13310-3 0  9994
2 49198  87.9251 352.9121 0001546  69.9241 290.2057 13.18688013218426
ONEWEB-0333             
1 49199U 21083P   26080.45974545  .00000381  00000+0  10082-2 0  9999
2 49199  87.9013 337.6984 0001675  80.5040 279.6278 13.13472882219392
ONEWEB-0334             
1 49200U 21083Q   26080.56769140 -.00000051  00000+0 -15753-3 0  9994
2 49200  87.9141 291.9482 0002502 102.9275 257.2138 13.20771241225226
ONEWEB-0335             
1 49201U 21083R   26079.69289950  .00000225  00000+0  58118-3 0  9996
2 49201  87.9022 337.8451 0001615  75.6767 284.4541 13.13470936219308
ONEWEB-0336             
1 49202U 21083S   26080.27353284 -.00000313  00000+0 -89280-3 0  9999
2 49202  87.9022 337.7260 0001485  65.1976 294.9308 13.13470773219370
ONEWEB-0337             
1 49203U 21083T   26080.20738915 -.00000206  00000+0 -59800-3 0  9997
2 49203  87.9015 337.7481 0001751  72.4415 287.6905 13.13470873219365
ONEWEB-0338             
1 49204U 21083U   26080.31516482  .00000078  00000+0  16035-3 0  9991
2 49204  87.9145 292.0035 0001968  94.5162 265.6197 13.20771287225213
ONEWEB-0339             
1 49205U 21083V   26080.21597861 -.00000002  00000+0 -40318-4 0  9992
2 49205  87.9026 337.7351 0001974  83.0260 277.1094 13.13472148219346
ONEWEB-0340             
1 49206U 21083W   26080.49678345  .00000070  00000+0  14534-3 0  9993
2 49206  87.9251 352.8750 0001712  77.5718 282.5606 13.18687386218417
ONEWEB-0341             
1 49207U 21083X   26080.50338012  .00000096  00000+0  21147-3 0  9996
2 49207  87.9243 352.8829 0002067  66.0786 294.0563 13.18687625218436
ONEWEB-0342             
1 49208U 21083Y   26080.54874898  .00000021  00000+0  20244-4 0  9994
2 49208  87.9153 291.9364 0001826  89.1414 270.9929 13.20770411225212
ONEWEB-0343             
1 49209U 21083Z   26080.28399512  .00000063  00000+0  12829-3 0  9996
2 49209  87.9250 352.9211 0002297  73.8560 286.2825 13.18687569218456
ONEWEB-0344             
1 49210U 21083AA  26080.43942629 -.00000257  00000+0 -73730-3 0  9993
2 49210  87.9015 337.7131 0001911  68.6398 291.4935 13.13471893219370
ONEWEB-0345             
1 49211U 21083AB  26080.43097083 -.00000237  00000+0 -68436-3 0  9994
2 49211  87.9022 337.6837 0001887  69.8033 290.3299 13.13470598219385
ONEWEB-0346             
1 49212U 21083AC  26080.50831601  .00000054  00000+0  10493-3 0  9990
2 49212  87.9240 352.8836 0001186  65.9538 294.1718 13.18686214218426
